SAUDISAT 1C (SO-50)     
1 27607U 02058C   26195.86946817  .00000377  00000+0  62487-4 0  9996
2 27607  64.5518  43.3332 0074542 257.3268 101.9497 14.83098045268566
SAUDISAT 2              
1 28371U 04025F   26195.98537942  .00000100  00000+0  33486-4 0  9990
2 28371  98.5520 196.6871 0024055 208.8633 151.1235 14.56698195169790
SAUDISAT 3              
1 31118U 07012B   26195.86745013  .00000097  00000+0  23874-4 0  9994
2 31118  98.1467 146.2884 0015574 135.6886 224.5570 14.71440220 31816
PISAT                   
1 41784U 16059B   26195.93474634  .00000454  00000+0  84898-4 0  9991
2 41784  97.8191 195.1967 0030439 115.6353 244.8003 14.69029444523815
FLYING LAPTOP           
1 42831U 17042G   26195.98011823  .00002067  00000+0  16449-3 0  9998
2 42831  97.4798 350.4668 0019720  33.1862 327.0595 15.01312390490625
SALSAT                  
1 46495U 20068K   26195.54877328  .00004163  00000+0  14541-3 0  9992
2 46495  97.8856 200.2874 0009148 195.2534 164.8431 15.30166467319545
